{
    "links": {
        "self": "http://www.neowsapp.com/rest/v1/neo/3363346?api_key=iIulBulltgU6a56xZRHN4H3l9WmuAYTsLGpBGhQ2"
    },
    "id": "3363346",
    "neo_reference_id": "3363346",
    "name": "(2006 XW)",
    "designation": "2006 XW",
    "nasa_jpl_url": "http://ssd.jpl.nasa.gov/sbdb.cgi?sstr=3363346",
    "absolute_magnitude_h": 23.6,
    "estimated_diameter": {
        "kilometers": {
            "estimated_diameter_min": 0.0506471459,
            "estimated_diameter_max": 0.1132504611
        },
        "meters": {
            "estimated_diameter_min": 50.6471458835,
            "estimated_diameter_max": 113.2504610618
        },
        "miles": {
            "estimated_diameter_min": 0.0314706677,
            "estimated_diameter_max": 0.0703705522
        },
        "feet": {
            "estimated_diameter_min": 166.1651821003,
            "estimated_diameter_max": 371.5566426699
        }
    },
    "is_potentially_hazardous_asteroid": false,
    "close_approach_data": [
        {
            "close_approach_date": "2006-12-08",
            "close_approach_date_full": "2006-Dec-08 05:40",
            "epoch_date_close_approach": 1165556400000,
            "relative_velocity": {
                "kilometers_per_second": "4.861916594",
                "kilometers_per_hour": "17502.899738368",
                "miles_per_hour": "10875.6212290987"
            },
            "miss_distance": {
                "astronomical": "0.1449265449",
                "lunar": "56.3764259661",
                "kilometers": "21680702.423499363",
                "miles": "13471763.7919746894"
            },
            "orbiting_body": "Earth"
        },
        {
            "close_approach_date": "2043-07-03",
            "close_approach_date_full": "2043-Jul-03 09:32",
            "epoch_date_close_approach": 2319528720000,
            "relative_velocity": {
                "kilometers_per_second": "7.7096897635",
                "kilometers_per_hour": "27754.8831486283",
                "miles_per_hour": "17245.8050319907"
            },
            "miss_distance": {
                "astronomical": "0.2494333042",
                "lunar": "97.0295553338",
                "kilometers": "37314691.015382054",
                "miles": "23186273.8351541852"
            },
            "orbiting_body": "Earth"
        }
    ],
    "orbital_data": {
        "orbit_id": "11",
        "orbit_determination_date": "2017-04-06 09:07:26",
        "first_observation_date": "2006-12-10",
        "last_observation_date": "2006-12-24",
        "data_arc_in_days": 14,
        "observations_used": 27,
        "orbit_uncertainty": "7",
        "minimum_orbit_intersection": ".0582776",
        "jupiter_tisserand_invariant": "5.631",
        "epoch_osculation": "2459000.5",
        "eccentricity": ".03748122973382154",
        "semi_major_axis": "1.102217725318334",
        "inclination": "8.208774617393031",
        "ascending_node_longitude": "75.83944970621262",
        "orbital_period": "422.6681404493414",
        "perihelion_distance": "1.060905249538988",
        "perihelion_argument": "229.8266909030639",
        "aphelion_distance": "1.143530201097681",
        "perihelion_time": "2458998.064013086331",
        "mean_anomaly": "2.07480811775513",
        "mean_motion": ".8517320458960581",
        "equinox": "J2000",
        "orbit_class": {
            "orbit_class_type": "AMO",
            "orbit_class_description": "Near-Earth asteroid orbits similar to that of 1221 Amor",
            "orbit_class_range": "1.017 AU < q (perihelion) < 1.3 AU"
        }
    },
    "is_sentry_object": false
}